KUIPER-00044            
1 64505U 25134F   25224.75002315 -.00903226  00000+0 -67105-1 0  9996
2 64505  51.8840  92.1783 0012487 297.4800 313.1997 15.05369344  4254
KUIPER-00046            
1 64506U 25134G   25224.24659403 -.00245150  00000+0 -13266-1 0  9991
2 64506  51.8751  93.1218 0009821 302.8356  57.1675 15.15279601  8861
KUIPER-00047            
1 64507U 25134H   25224.34987360  .00021319  00000+0  63361-3 0  9999
2 64507  51.8625  90.8200 0009755 307.4138  52.5959 15.34665007  8901
KUIPER-00048            
1 64508U 25134J   25224.35031327  .00026522  00000+0  73536-3 0  9990
2 64508  51.8778  90.1489 0003100 282.4090  77.6549 15.36750408  8916
KUIPER-00049            
1 64509U 25134K   25223.85893413  .00031319  00000+0  88952-3 0  9995
2 64509  51.8703  92.8306 0006996 284.3144  75.7065 15.35893269  8812
KUIPER-00050            
1 64510U 25134L   25224.32266528  .00038692  00000+0  11110-2 0  9993
2 64510  51.8714  90.6902 0007272 280.2885  79.7281 15.35445619  8905
KUIPER-00051            
1 64511U 25134M   25224.04762391  .00044285  00000+0  12648-2 0  9994
2 64511  51.8726  91.8548 0005109 274.3211  85.7191 15.35563780  8864
KUIPER-00052            
1 64512U 25134N   25224.33238041  .00122841  00000+0  18171-2 0  9999
2 64512  51.8757  88.5607 0004830 315.9980  44.0629 15.54383943  8937
